LANDSAT 5               
1 14780U 84021A   13110.19981826 -.00000703  00000-0 -11491-3 0  9198
2 14780  98.1015 175.2604 0016946 104.1038 256.0413 14.67597391549768
SPOT 2                  
1 20436U 90005A   13110.10208869  .00000590  00000-0  10744-3 0  4627
2 20436  98.7221 266.7137 0150665 286.2209  72.2459 14.63474111210587
SCD 1                   
1 22490U 93009B   13108.02752132  .00000390  00000-0  59342-4 0  1129
2 22490  24.9700 307.7496 0043045 122.9976  15.2472 14.43847913 65465
ERS-2                   
1 23560U 95021A   13110.04440456  .00003269  00000-0  23082-3 0  6418
2 23560  98.5441 257.6197 0004352  26.9787 109.5186 15.05763321945505
RADARSAT-1              
1 23710U 95059A   13110.20860973  .00000150  00000-0  75017-4 0  5640
2 23710  98.5818 118.3228 0001155  90.5005 335.7783 14.29989466911320
TOMS EP                 
1 23940U 96037A   13107.07041646  .00000420  00000-0  11119-3 0  2279
2 23940  97.9217 288.0258 0028174 336.0588 172.0492 14.53171834892644
MIDORI (ADEOS)          
1 24277U 96046A   13109.47700380  .00000052  00000-0  37909-4 0  2037
2 24277  98.5508  53.1091 0002322 102.4649   6.9192 14.28875839869154
ORBVIEW 2 (SEASTAR)     
1 24883U 97037A   13109.80874044  .00000139  00000-0  67093-4 0   117
2 24883  98.4449 226.0446 0001049 280.3327 238.3134 14.32615433834290
IRS-1D                  
1 24971U 97057A   13110.11131831  .00000202  00000-0  86720-4 0  6309
2 24971  98.2270  93.7133 0055015  66.1330 294.5605 14.33297521813767
TRMM                    
1 25063U 97074A   13110.18464586  .00016015  00000-0  22288-3 0  2981
2 25063  34.9598  58.3761 0001485 229.3379 255.6505 15.56022038878765
SPOT 4                  
1 25260U 98017A   13110.13231669 -.00000227  00000-0 -85302-4 0  4548
2 25260  98.5172 167.2663 0001616 110.9680 249.1728 14.20882612781451
FASAT B                 
1 25395U 98043B   13109.46322468  .00000067  00000-0  46455-4 0  6029
2 25395  98.3602  87.3545 0003761  67.8346  78.2141 14.24642000768071
TECHSAT 1B (GO-32)      
1 25397U 98043D   13109.83733918  .00000022  00000-0  27863-4 0   508
2 25397  98.4093  80.1520 0002517 105.4641 285.4772 14.23333393767642
SCD 2                   
1 25504U 98060A   13110.11725372  .00000339  00000-0  45977-4 0  4247
2 25504  24.9953 128.9965 0016981 200.6477 208.2331 14.43458116765173
LANDSAT 7               
1 25682U 99020A   13110.15122848  .00000136  00000-0  40171-4 0   594
2 25682  98.1949 180.4743 0000496  86.7211 273.4053 14.57123534745382
KITSAT 3                
1 25756U 99029A   13109.27564769  .00000080  00000-0  30903-4 0   970
2 25756  98.5033 357.2562 0013475 214.9299 293.4645 14.52945724736711
DLR-TUBSAT              
1 25757U 99029B   13110.11054341  .00000060  00000-0  27007-4 0   188
2 25757  98.5458 351.1708 0013578 261.1782  98.7881 14.51033299736142
IRS-P4 (OCEANSAT 1)     
1 25758U 99029C   13110.17814029  .00000259  00000-0  75888-4 0  3321
2 25758  98.2436 201.7089 0001570 237.1284 154.0805 14.51337610736312
QUIKSCAT                
1 25789U 99034A   13109.51480469  .00000055  00000-0  40631-4 0  5788
2 25789  98.6208 300.2262 0001897 119.9530 293.3012 14.26992580720436
IKONOS 2                
1 25919U 99051A   13110.07422011  .00000276  00000-0  61014-4 0  9185
2 25919  98.1020 185.9338 0001385  85.6408 274.4960 14.64451211725389
CBERS 1 (ZY 1A)         
1 25940U 99057A   13109.97200563  .00000096  00000-0  48660-4 0  4567
2 25940  98.3120  68.4427 0004942 194.2507 195.1358 14.34783365707935
TERRA                   
1 25994U 99068A   13110.16644684  .00000228  00000-0  60545-4 0   397
2 25994  98.2095 185.9295 0001199 100.5939 259.5419 14.57118644709462
ARIRANG 1 (KOMPSAT-1)   
1 26032U 99070A   13110.18455809  .00000379  00000-0  76032-4 0  9568
2 26032  97.7580 306.9591 0006205  94.4841 265.7053 14.66728584713041
EO-1                    
1 26619U 00075A   13110.19763026  .00001135  00000-0  23074-3 0  3898
2 26619  98.0345 173.9832 0009296 219.6265 140.4311 14.62917051661312
SAC-C                   
1 26620U 00075B   13110.01419537  .00000377  00000-0  93008-4 0  8871
2 26620  97.9278  89.2656 0001124 103.7515 287.0180 14.57168897659907
EROS A1                 
1 26631U 00079A   13110.11634691  .00006299  00000-0  38277-3 0  1966
2 26631  97.6163 184.5341 0010901 237.9915 209.2797 15.10782017686711
QUICKBIRD 2             
1 26953U 01047A   13110.14603909  .00010659  00000-0  25494-3 0  5359
2 26953  97.1769 175.1370 0001539 121.5368 322.4435 15.41645340646129
TES                     
1 26957U 01049A   13110.19979611  .00002827  00000-0  21594-3 0  4956
2 26957  97.7317 190.7250 0050661 146.8048 213.6376 15.01773789629663
JASON 1                 
1 26997U 01055A   13109.18898395 -.00000057  00000-0  20583-4 0  6474
2 26997  66.0429  34.4810 0008205 285.6670 147.2677 12.83921540531717
METEOR-3M               
1 27001U 01056A   13110.05253234 -.00000027  00000-0  17629-4 0  3063
2 27001  99.2117 283.2590 0013139 347.8733 159.2200 13.68747685567420
BADR-B                  
1 27003U 01056C   13109.55405071 -.00000008  00000-0  38599-4 0  3424
2 27003  99.1627 288.2750 0019704 338.8515  52.7319 13.70150571567997
MAROC-TUBSAT            
1 27004U 01056D   13109.05140997 -.00000007  00000-0  39338-4 0   847
2 27004  99.1653 286.9221 0019329 341.6941 164.7981 13.70064973567880
SPOT 5                  
1 27421U 02021A   13110.18278794  .00000248  00000-0  13653-3 0  3712
2 27421  98.6140 180.4321 0000882  96.9494 347.8254 14.20084809568282
AQUA                    
1 27424U 02022A   13107.80111792  .00000691  00000-0  16352-3 0  6405
2 27424  98.2137  50.0983 0001722  89.8740   5.6820 14.57107261582723
HAIYANG-1A              
1 27430U 02024A   13109.17800044  .00000148  00000-0  73271-4 0  2015
2 27430  98.2853 144.7050 0007873 250.3166 139.7262 14.30160035570423
ALSAT 1                 
1 27559U 02054A   13109.48099301  .00000384  00000-0  71121-4 0  7750
2 27559  97.7700 311.1786 0023187 190.7756 227.6897 14.70254594555684
MIDORI II (ADEOS-II)    
1 27597U 02056A   13110.09722059  .00000152  00000-0  79989-4 0  9942
2 27597  98.2920 135.6047 0002226 115.0282 278.3501 14.26542454538772
IRS-P6 (RESOURCESAT-1)  
1 28051U 03046A   13110.16322481  .00000114  00000-0  72259-4 0  9582
2 28051  98.7586 187.2768 0004595  53.1230 307.0373 14.21608099493455
CBERS 2 (ZY 1B)         
1 28057U 03049A   13110.13212576  .00000109  00000-0  52325-4 0  4054
2 28057  98.1593 113.5639 0002053  75.9308 284.2109 14.35056399497606
TANSUO 1 (TS 1)         
1 28220U 04012A   13109.98093211  .00001325  00000-0  13642-3 0  4937
2 28220  97.4958  90.0332 0011273 193.5987 199.3958 14.91826731489255
FORMOSAT-2 (ROCSAT 2)   
1 28254U 04018A   13110.20565416  .00000106  00000-0  10000-3 0  9923
2 28254  98.9187 173.3531 0001761  93.1699 341.7810 14.00777583455943
AURA                    
1 28376U 04026A   13107.51370374  .00000650  00000-0  15437-3 0  7789
2 28376  98.2209  52.0155 0000779  70.6317 289.4927 14.57092877465739
PARASOL                 
1 28498U 04049G   13109.41685336  .00000455  00000-0  10451-3 0  6252
2 28498  98.4558  82.5947 0001508  94.8965 265.2422 14.60200423443536
IRS-P5 (CARTOSAT-1)     
1 28649U 05017A   13110.14239874  .00000980  00000-0  12573-3 0  9613
2 28649  97.8738 185.9391 0000291 136.2245 223.8983 14.83453016430775
TOPSAT                  
1 28891U 05043B   13110.17122848  .00000134  00000-0  36867-4 0  3311
2 28891  97.8625 324.8172 0015735 265.6825  94.2569 14.60295852398578
SINAH 1                 
1 28893U 05043D   13110.18623965  .00000166  00000-0  43232-4 0  6637
2 28893  97.8704 327.3839 0014201 261.7373 246.5293 14.60508810398654
ALOS (DAICHI)           
1 28931U 06002A   13110.24410611  .00000476  00000-0  10768-3 0   595
2 28931  98.0358 176.9372 0002253  83.4555 276.6908 14.60339552385580
EROS B                  
1 29079U 06014A   13110.11286895  .00008774  00000-0  41796-3 0  8629
2 29079  97.4445 229.5793 0000749 278.3660 206.7207 15.19362943387466
RSS-1 (YAOGAN 1)        
1 29092U 06015A   13109.52277760  .00000343  00000-0  50845-4 0  3916
2 29092  97.9526 102.4585 0001534 101.6451  44.7111 14.81184143377266
RESURS-DK 1             
1 29228U 06021A   13110.20587877  .00000575  00000-0  54002-4 0  6722
2 29228  69.9381 357.0445 0004846 193.5669 273.3814 14.99868938380138
ARIRANG 2 (KOMPSAT-2)   
1 29268U 06031A   13110.19408140  .00000264  00000-0  62073-4 0  4696
2 29268  98.2289   6.6503 0016404 100.4800 259.8244 14.62069493359044
LAPAN-TUBSAT            
1 29709U 07001A   13110.18044457  .00000384  00000-0  56076-4 0  9739
2 29709  97.6323 133.2888 0014207  31.9946 328.2130 14.80886300339066
CARTOSAT-2 (IRS-P7)     
1 29710U 07001B   13110.14358766  .00000485  00000-0  73296-4 0  9508
2 29710  97.9687 169.6463 0001074  48.4542 311.6782 14.78622605338712
HAIYANG-1B              
1 31113U 07010A   13110.11414463  .00000165  00000-0  80362-4 0  6977
2 31113  98.3641 164.9849 0014295 244.7459 115.2253 14.29859044314383
COSMO-SKYMED 1          
1 31598U 07023A   13110.12321336 -.00000102  00000-0 -63040-5 0  5219
2 31598  97.8742 296.2705 0001486  80.0208 280.1157 14.82155682317437
TERRASAR-X              
1 31698U 07026A   13109.19079601 -.00000051  00000-0  78396-6 0  8354
2 31698  97.4452 117.5547 0001651 109.2816 250.8598 15.19146696324116
WORLDVIEW-1 (WV-1)      
1 32060U 07041A   13110.15956133  .00004388  00000-0  18063-3 0  2360
2 32060  97.3288 186.1139 0001314 145.5988 295.3736 15.24638745310833
CBERS 2B                
1 32062U 07042A   13110.15726269  .00000146  00000-0  60546-4 0  8096
2 32062  98.3413 181.0473 0033137  78.1732 282.3182 14.38956680293136
YAOGAN 3                
1 32289U 07055A   13110.16004760  .00000660  00000-0  91569-4 0   257
2 32289  97.9078 101.6768 0001021  77.8011 282.3308 14.81176922293891
COSMO-SKYMED 2          
1 32376U 07059A   13110.15695861  .00000609  00000-0  82955-4 0  9223
2 32376  97.8740 296.3039 0001461  84.5852 275.5504 14.82164258290183
